ONEWEB-0628             
1 55169U 23004AF  26008.45944655 -.00000115  00000+0 -35411-3 0  9998
2 55169  87.8927  22.3692 0002489  96.8358 263.3054 13.12447172147080
ONEWEB-0629             
1 55170U 23004AG  26008.49567644 -.00000028  00000+0 -10656-3 0  9990
2 55170  87.9086  37.6197 0002102  89.5663 270.5709 13.17649853146551
ONEWEB-0631             
1 55171U 23004AH  26008.38110630 -.00000030  00000+0 -10873-3 0  9992
2 55171  87.9180   7.1630 0001482 105.2478 254.8818 13.18684775148619
ONEWEB-0709             
1 55172U 23004AJ  26008.36260626 -.00000222  00000+0 -66119-3 0  9999
2 55172  87.8824  52.9059 0000951 111.9092 248.2137 13.11415133144927
ONEWEB-0710             
1 55173U 23004AK  26008.43408600 -.00000130  00000+0 -36807-3 0  9993
2 55173  87.9085  37.6265 0001892  99.5249 260.6096 13.17648827146543
ONEWEB-0711             
1 55174U 23004AL  26008.41009166  .00000491  00000+0  13504-2 0  9992
2 55174  87.8835  52.8723 0002423 110.7428 249.3959 13.11420300144896
ONEWEB-0713             
1 55175U 23004AM  26008.50503457  .00000148  00000+0  38104-3 0  9998
2 55175  87.8829  52.8548 0002156 106.8688 253.2677 13.11415172144894
ONEWEB-0715             
1 55176U 23004AN  26008.49995032  .00000373  00000+0  10159-2 0  9990
2 55176  87.8831  52.8565 0001360 121.0030 239.1232 13.11415674144935
